start=new Date('2022-04-17T00:00:00.000Z').valueOf();
sats=[{"MEAN_MOTION":"15.06387825","COUNTRY_CODE":"US","NORAD_CAT_ID":"47815","MEAN_MOTION_DOT":"-0.00001727","EPHEMERIS_TYPE":"0","OBJECT_ID":"2021-018AE","DECAY_DATE":null,"ARG_OF_PERICENTER":"49.5421","OBJECT_NAME":"STARLINK-2396","RCS_SIZE":"LARGE","REF_FRAME":"TEME","MEAN_MOTION_DDOT":"0.0000000000000","CENTER_NAME":"EARTH","LAUNCH_DATE":"2021-03-11","ELEMENT_SET_NO":"999","MEAN_ANOMALY":"310.5741","TLE_LINE1":"1 47815U 21018AE  22106.84208643 -.00001727  00000-0 -97112-4 0  9996","BSTAR":"-0.00009711200000","APOAPSIS":"548.628","PERIOD":"95.593","SITE":"AFETR","FILE":"3404767","ECCENTRICITY":"0.00019890","TLE_LINE2":"2 47815  53.0537 154.0303 0001989  49.5421 310.5741 15.06387825 62204","OBJECT_TYPE":"PAYLOAD","PERIAPSIS":"545.873","TIME_SYSTEM":"UTC","GP_ID":"201420387","INCLINATION":"53.0537","RA_OF_ASC_NODE":"154.0303","CLASSIFICATION_TYPE":"U","MEAN_ELEMENT_THEORY":"SGP4","EPOCH":"2022-04-16T20:12:36.267552","REV_AT_EPOCH":"6220","SEMIMAJOR_AXIS":"6925.386"},{"TIME_SYSTEM":"UTC","PERIAPSIS":"545.873","OBJECT_TYPE":"PAYLOAD","TLE_LINE2":"2 47816  53.0536 158.9948 0001926  46.7708 313.3442 15.06402246 62136","ECCENTRICITY":"0.00019260","FILE":"3404767","SITE":"AFETR","PERIOD":"95.592","APOAPSIS":"548.540","BSTAR":"-0.00001164400000","SEMIMAJOR_AXIS":"6925.342","EPOCH":"2022-04-16T20:25:11.860608","REV_AT_EPOCH":"6213","MEAN_ELEMENT_THEORY":"SGP4","CLASSIFICATION_TYPE":"U","INCLINATION":"53.0536","RA_OF_ASC_NODE":"158.9948","GP_ID":"201420634","DECAY_DATE":null,"OBJECT_ID":"2021-018AF","EPHEMERIS_TYPE":"0","MEAN_MOTION_DOT":"-0.00000455","NORAD_CAT_ID":"47816","MEAN_MOTION":"15.06402246","COUNTRY_CODE":"US","TLE_LINE1":"1 47816U 21018AF  22106.85083172 -.00000455  00000-0 -11644-4 0  9999","MEAN_ANOMALY":"313.3442","ELEMENT_SET_NO":"999","LAUNCH_DATE":"2021-03-11","CENTER_NAME":"EARTH","MEAN_MOTION_DDOT":"0.0000000000000","REF_FRAME":"TEME","RCS_SIZE":"LARGE","OBJECT_NAME":"STARLINK-2399","ARG_OF_PERICENTER":"46.7708"},{"GP_ID":"201419886","CLASSIFICATION_TYPE":"U","INCLINATION":"53.0559","RA_OF_ASC_NODE":"158.9152","REV_AT_EPOCH":"6213","EPOCH":"2022-04-16T20:51:43.981056","SEMIMAJOR_AXIS":"6925.328","MEAN_ELEMENT_THEORY":"SGP4","FILE":"3404767","PERIOD":"95.592","APOAPSIS":"548.321","BSTAR":"0.00000242450000","SITE":"AFETR","OBJECT_TYPE":"PAYLOAD","TLE_LINE2":"2 47817  53.0559 158.9152 0001628  65.6381 294.4777 15.06406603 62136","PERIAPSIS":"546.066","TIME_SYSTEM":"UTC","ECCENTRICITY":"0.00016280","REF_FRAME":"TEME","CENTER_NAME":"EARTH","MEAN_MOTION_DDOT":"0.0000000000000","OBJECT_NAME":"STARLINK-2400","ARG_OF_PERICENTER":"65.6381","RCS_SIZE":"LARGE","TLE_LINE1":"1 47817U 21018AG  22106.86925904 -.00000245  00000-0  24245-5 0  9997","MEAN_ANOMALY":"294.4777","LAUNCH_DATE":"2021-03-11","ELEMENT_SET_NO":"999","NORAD_CAT_ID":"47817","MEAN_MOTION_DOT":"-0.00000245","COUNTRY_CODE":"US","MEAN_MOTION":"15.06406603","OBJECT_ID":"2021-018AG","DECAY_DATE":null,"EPHEMERIS_TYPE":"0"},{"DECAY_DATE":null,"OBJECT_ID":"2021-018AH","EPHEMERIS_TYPE":"0","MEAN_MOTION_DOT":"-0.00000677","NORAD_CAT_ID":"47818","COUNTRY_CODE":"US","MEAN_MOTION":"15.06401233","TLE_LINE1":"1 47818U 21018AH  22106.89644071 -.00000677  00000-0 -26523-4 0  9994","ELEMENT_SET_NO":"999","LAUNCH_DATE":"2021-03-11","MEAN_ANOMALY":"302.8823","MEAN_MOTION_DDOT":"0.0000000000000","CENTER_NAME":"EARTH","REF_FRAME":"TEME","RCS_SIZE":"LARGE","ARG_OF_PERICENTER":"57.2322","OBJECT_NAME":"STARLINK-2401","PERIAPSIS":"546.082","TIME_SYSTEM":"UTC","TLE_LINE2":"2 47818  53.0535 163.7901 0001629  57.2322 302.8823 15.06401233 62073","OBJECT_TYPE":"PAYLOAD","ECCENTRICITY":"0.00016290","FILE":"3404767","SITE":"AFETR","BSTAR":"-0.00002652300000","APOAPSIS":"548.338","PERIOD":"95.592","SEMIMAJOR_AXIS":"6925.345","EPOCH":"2022-04-16T21:30:52.477344","REV_AT_EPOCH":"6207","MEAN_ELEMENT_THEORY":"SGP4","RA_OF_ASC_NODE":"163.7901","INCLINATION":"53.0535","CLASSIFICATION_TYPE":"U","GP_ID":"201419636"},{"TLE_LINE1":"1 47819U 21018AJ  22106.87294990 -.00005736  00000-0 -36660-3 0  9997","MEAN_ANOMALY":"314.6522","ELEMENT_SET_NO":"999","LAUNCH_DATE":"2021-03-11","CENTER_NAME":"EARTH","MEAN_MOTION_DDOT":"0.0000000000000","REF_FRAME":"TEME","RCS_SIZE":"LARGE","OBJECT_NAME":"STARLINK-2402","ARG_OF_PERICENTER":"45.4621","DECAY_DATE":null,"OBJECT_ID":"2021-018AJ","EPHEMERIS_TYPE":"0","MEAN_MOTION_DOT":"-0.00005736","NORAD_CAT_ID":"47819","COUNTRY_CODE":"US","MEAN_MOTION":"15.06383341","SEMIMAJOR_AXIS":"6925.400","REV_AT_EPOCH":"6220","EPOCH":"2022-04-16T20:57:02.871360","MEAN_ELEMENT_THEORY":"SGP4","CLASSIFICATION_TYPE":"U","RA_OF_ASC_NODE":"158.8957","INCLINATION":"53.0522","GP_ID":"201420888","TIME_SYSTEM":"UTC","PERIAPSIS":"545.949","OBJECT_TYPE":"PAYLOAD","TLE_LINE2":"2 47819  53.0522 158.8957 0001899  45.4621 314.6522 15.06383341 62207","ECCENTRICITY":"0.00018990","FILE":"3404767","SITE":"AFETR","PERIOD":"95.593","APOAPSIS":"548.580","BSTAR":"-0.00036660000000"},{"GP_ID":"201421135","INCLINATION":"53.0537","RA_OF_ASC_NODE":"170.1807","CLASSIFICATION_TYPE":"U","MEAN_ELEMENT_THEORY":"SGP4","REV_AT_EPOCH":"6201","EPOCH":"2022-04-16T14:07:00.391872","SEMIMAJOR_AXIS":"6925.303","BSTAR":"-0.00020672000000","APOAPSIS":"548.353","PERIOD":"95.591","SITE":"AFETR","FILE":"3404767","ECCENTRICITY":"0.00017120","TLE_LINE2":"2 47820  53.0537 170.1807 0001712  52.8198 307.2947 15.06414932 62010","OBJECT_TYPE":"PAYLOAD","PERIAPSIS":"545.982","TIME_SYSTEM":"UTC","ARG_OF_PERICENTER":"52.8198","OBJECT_NAME":"STARLINK-2403","RCS_SIZE":"LARGE","REF_FRAME":"TEME","MEAN_MOTION_DDOT":"0.0000000000000","CENTER_NAME":"EARTH","ELEMENT_SET_NO":"999","LAUNCH_DATE":"2021-03-11","MEAN_ANOMALY":"307.2947","TLE_LINE1":"1 47820U 21018AK  22106.58819898 -.00003361  00000-0 -20672-3 0  9995","MEAN_MOTION":"15.06414932","COUNTRY_CODE":"US","NORAD_CAT_ID":"47820","MEAN_MOTION_DOT":"-0.00003361","EPHEMERIS_TYPE":"0","OBJECT_ID":"2021-018AK","DECAY_DATE":null},{"MEAN_ANOMALY":"297.9259","ELEMENT_SET_NO":"999","LAUNCH_DATE":"2021-03-11","TLE_LINE1":"1 47821U 21018AL  22106.83146546 -.00006515  00000-0 -41916-3 0  9995","OBJECT_NAME":"STARLINK-2406","ARG_OF_PERICENTER":"62.1910","RCS_SIZE":"LARGE","REF_FRAME":"TEME","CENTER_NAME":"EARTH","MEAN_MOTION_DDOT":"0.0000000000000","EPHEMERIS_TYPE":"0","OBJECT_ID":"2021-018AL","DECAY_DATE":null,"MEAN_MOTION":"15.06375204","COUNTRY_CODE":"US","NORAD_CAT_ID":"47821","MEAN_MOTION_DOT":"-0.00006515","MEAN_ELEMENT_THEORY":"SGP4","EPOCH":"2022-04-16T19:57:18.615744","REV_AT_EPOCH":"6213","SEMIMAJOR_AXIS":"6925.425","GP_ID":"201419386","RA_OF_ASC_NODE":"159.0817","CLASSIFICATION_TYPE":"U","INCLINATION":"53.0531","ECCENTRICITY":"0.00017810","OBJECT_TYPE":"PAYLOAD","TLE_LINE2":"2 47821  53.0531 159.0817 0001781  62.1910 297.9259 15.06375204 62136","TIME_SYSTEM":"UTC","PERIAPSIS":"546.056","APOAPSIS":"548.523","PERIOD":"95.594","BSTAR":"-0.00041916000000","SITE":"AFETR","FILE":"3404767"},{"OBJECT_TYPE":"PAYLOAD","TLE_LINE2":"2 47822  53.0534 169.9258 0001688  46.0052 314.1076 15.06388281 61972","PERIAPSIS":"546.080","TIME_SYSTEM":"UTC","ECCENTRICITY":"0.00016880","FILE":"3404767","PERIOD":"95.593","APOAPSIS":"548.418","BSTAR":"-0.00041117000000","SITE":"AFETR","REV_AT_EPOCH":"6197","EPOCH":"2022-04-16T15:26:37.523040","SEMIMAJOR_AXIS":"6925.384","MEAN_ELEMENT_THEORY":"SGP4","GP_ID":"201420137","RA_OF_ASC_NODE":"169.9258","CLASSIFICATION_TYPE":"U","INCLINATION":"53.0534","OBJECT_ID":"2021-018AM","DECAY_DATE":null,"EPHEMERIS_TYPE":"0","NORAD_CAT_ID":"47822","MEAN_MOTION_DOT":"-0.00006399","COUNTRY_CODE":"US","MEAN_MOTION":"15.06388281","TLE_LINE1":"1 47822U 21018AM  22106.64348985 -.00006399  00000-0 -41117-3 0  9999","MEAN_ANOMALY":"314.1076","LAUNCH_DATE":"2021-03-11","ELEMENT_SET_NO":"999","REF_FRAME":"TEME","CENTER_NAME":"EARTH","MEAN_MOTION_DDOT":"0.0000000000000","OBJECT_NAME":"STARLINK-2407","ARG_OF_PERICENTER":"46.0052","RCS_SIZE":"LARGE"},{"MEAN_ELEMENT_THEORY":"SGP4","REV_AT_EPOCH":"6175","EPOCH":"2022-04-16T12:38:06.930240","SEMIMAJOR_AXIS":"6925.337","GP_ID":"201392707","CLASSIFICATION_TYPE":"U","RA_OF_ASC_NODE":"160.4574","INCLINATION":"53.0525","ECCENTRICITY":"0.00017110","TLE_LINE2":"2 47823  53.0525 160.4574 0001711  56.1490 303.9661 15.06403662 61758","OBJECT_TYPE":"PAYLOAD","PERIAPSIS":"546.017","TIME_SYSTEM":"UTC","BSTAR":"0.00025780000000","PERIOD":"95.592","APOAPSIS":"548.387","SITE":"AFETR","FILE":"3404524","LAUNCH_DATE":"2021-03-11","ELEMENT_SET_NO":"999","MEAN_ANOMALY":"303.9661","TLE_LINE1":"1 47823U 21018AN  22106.52646910  .00003561  00000-0  25780-3 0  9990","ARG_OF_PERICENTER":"56.1490","OBJECT_NAME":"STARLINK-2408","RCS_SIZE":"LARGE","REF_FRAME":"TEME","MEAN_MOTION_DDOT":"0.0000000000000","CENTER_NAME":"EARTH","EPHEMERIS_TYPE":"0","OBJECT_ID":"2021-018AN","DECAY_DATE":null,"COUNTRY_CODE":"US","MEAN_MOTION":"15.06403662","NORAD_CAT_ID":"47823","MEAN_MOTION_DOT":"0.00003561"},{"OBJECT_ID":"2021-018AP","DECAY_DATE":null,"EPHEMERIS_TYPE":"0","NORAD_CAT_ID":"47824","MEAN_MOTION_DOT":"-0.00002804","COUNTRY_CODE":"US","MEAN_MOTION":"15.06380346","TLE_LINE1":"1 47824U 21018AP  22106.84716438 -.00002804  00000-0 -16952-3 0  9991","MEAN_ANOMALY":"310.1681","LAUNCH_DATE":"2021-03-11","ELEMENT_SET_NO":"999","REF_FRAME":"TEME","CENTER_NAME":"EARTH","MEAN_MOTION_DDOT":"0.0000000000000","OBJECT_NAME":"STARLINK-2409","ARG_OF_PERICENTER":"49.9484","RCS_SIZE":"LARGE","OBJECT_TYPE":"PAYLOAD","TLE_LINE2":"2 47824  53.0547 159.0115 0002011  49.9484 310.1681 15.06380346 62133","PERIAPSIS":"545.881","TIME_SYSTEM":"UTC","ECCENTRICITY":"0.00020110","FILE":"3404767","APOAPSIS":"548.666","PERIOD":"95.593","BSTAR":"-0.00016952000000","SITE":"AFETR","EPOCH":"2022-04-16T20:19:55.002432","REV_AT_EPOCH":"6213","SEMIMAJOR_AXIS":"6925.409","MEAN_ELEMENT_THEORY":"SGP4","GP_ID":"201420635","INCLINATION":"53.0547","CLASSIFICATION_TYPE":"U","RA_OF_ASC_NODE":"159.0115"}];
